start=new Date('2021-10-23T00:00:00.000Z').valueOf();
sats=[{"TLE_LINE1":"1 49131U 21082B   21295.91668981 -.00045635  00000-0 -38187-3 0  9993","TLE_LINE2":"2 49131  70.0010  17.8646 0003678 287.6532 327.4601 15.69792075  3666","ARG_OF_PERICENTER":"287.6532","OBJECT_TYPE":"PAYLOAD","LAUNCH_DATE":"2021-09-14","INCLINATION":"70.0010","PERIOD":"91.732","REV_AT_EPOCH":"366","TIME_SYSTEM":"UTC","MEAN_ELEMENT_THEORY":"SGP4","ELEMENT_SET_NO":"999","ECCENTRICITY":"0.00036780","MEAN_ANOMALY":"327.4601","REF_FRAME":"TEME","COUNTRY_CODE":"US","GP_ID":"187935474","RCS_SIZE":"LARGE","NORAD_CAT_ID":"49131","EPOCH":"2021-10-22T22:00:01.999584","MEAN_MOTION_DOT":"-0.00045635","APOAPSIS":"361.972","OBJECT_NAME":"STARLINK-3096","RA_OF_ASC_NODE":"17.8646","EPHEMERIS_TYPE":"0","FILE":"3179071","BSTAR":"-0.00038187000000","MEAN_MOTION":"15.69792075","OBJECT_ID":"2021-082B","MEAN_MOTION_DDOT":"0.0000000000000","SEMIMAJOR_AXIS":"6737.629","CENTER_NAME":"EARTH","SITE":"AFWTR","PERIAPSIS":"357.016","DECAY_DATE":null,"CLASSIFICATION_TYPE":"U"},{"TLE_LINE2":"2 49132  70.0005  17.8665 0003639 290.9281 322.1103 15.69801335  3666","TLE_LINE1":"1 49132U 21082C   21295.91668981 -.00089212  00000-0 -75182-3 0  9999","ARG_OF_PERICENTER":"290.9281","PERIOD":"91.731","INCLINATION":"70.0005","OBJECT_TYPE":"PAYLOAD","LAUNCH_DATE":"2021-09-14","REV_AT_EPOCH":"366","MEAN_ELEMENT_THEORY":"SGP4","ELEMENT_SET_NO":"999","TIME_SYSTEM":"UTC","ECCENTRICITY":"0.00036390","GP_ID":"187935029","RCS_SIZE":"LARGE","NORAD_CAT_ID":"49132","COUNTRY_CODE":"US","REF_FRAME":"TEME","MEAN_ANOMALY":"322.1103","APOAPSIS":"361.919","OBJECT_NAME":"STARLINK-3090","EPOCH":"2021-10-22T22:00:01.999584","MEAN_MOTION_DOT":"-0.00089212","RA_OF_ASC_NODE":"17.8665","OBJECT_ID":"2021-082C","FILE":"3179071","BSTAR":"-0.00075182000000","MEAN_MOTION":"15.69801335","EPHEMERIS_TYPE":"0","MEAN_MOTION_DDOT":"0.0000000000000","SEMIMAJOR_AXIS":"6737.602","CENTER_NAME":"EARTH","SITE":"AFWTR","DECAY_DATE":null,"CLASSIFICATION_TYPE":"U","PERIAPSIS":"357.016"},{"RA_OF_ASC_NODE":"17.8611","OBJECT_ID":"2021-082D","FILE":"3179034","MEAN_MOTION":"15.69767468","BSTAR":"-0.00027530000000","EPHEMERIS_TYPE":"0","APOAPSIS":"362.030","OBJECT_NAME":"STARLINK-3077","EPOCH":"2021-10-22T22:00:01.999584","MEAN_MOTION_DOT":"-0.00032974","SITE":"AFWTR","CENTER_NAME":"EARTH","DECAY_DATE":null,"CLASSIFICATION_TYPE":"U","PERIAPSIS":"357.098","MEAN_MOTION_DDOT":"0.0000000000000","SEMIMAJOR_AXIS":"6737.699","PERIOD":"91.733","INCLINATION":"70.0008","OBJECT_TYPE":"PAYLOAD","LAUNCH_DATE":"2021-09-14","REV_AT_EPOCH":"619","TLE_LINE2":"2 49133  70.0008  17.8611 0003660 290.0652 327.2344 15.69767468  6190","TLE_LINE1":"1 49133U 21082D   21295.91668981 -.00032974  00000-0 -27530-3 0  9997","ARG_OF_PERICENTER":"290.0652","ECCENTRICITY":"0.00036600","GP_ID":"187912195","RCS_SIZE":"LARGE","NORAD_CAT_ID":"49133","COUNTRY_CODE":"US","REF_FRAME":"TEME","MEAN_ANOMALY":"327.2344","MEAN_ELEMENT_THEORY":"SGP4","ELEMENT_SET_NO":"999","TIME_SYSTEM":"UTC"},{"ARG_OF_PERICENTER":"290.7547","TLE_LINE1":"1 49134U 21082E   21295.91668981 -.00081495  00000-0 -68641-3 0  9998","TLE_LINE2":"2 49134  70.0017  17.8520 0003867 290.7547 334.9884 15.69785677  7398","REV_AT_EPOCH":"739","LAUNCH_DATE":"2021-09-14","OBJECT_TYPE":"PAYLOAD","PERIOD":"91.732","INCLINATION":"70.0017","MEAN_ELEMENT_THEORY":"SGP4","TIME_SYSTEM":"UTC","ELEMENT_SET_NO":"999","REF_FRAME":"TEME","MEAN_ANOMALY":"334.9884","RCS_SIZE":"LARGE","GP_ID":"187912199","NORAD_CAT_ID":"49134","COUNTRY_CODE":"US","ECCENTRICITY":"0.00038670","MEAN_MOTION_DOT":"-0.00081495","EPOCH":"2021-10-22T22:00:01.999584","OBJECT_NAME":"STARLINK-3078","APOAPSIS":"362.118","EPHEMERIS_TYPE":"0","OBJECT_ID":"2021-082E","MEAN_MOTION":"15.69785677","FILE":"3179034","BSTAR":"-0.00068641000000","RA_OF_ASC_NODE":"17.8520","SEMIMAJOR_AXIS":"6737.647","MEAN_MOTION_DDOT":"0.0000000000000","CLASSIFICATION_TYPE":"U","DECAY_DATE":null,"PERIAPSIS":"356.907","SITE":"AFWTR","CENTER_NAME":"EARTH"},{"MEAN_MOTION_DDOT":"0.0000000000000","SEMIMAJOR_AXIS":"6737.592","CLASSIFICATION_TYPE":"U","DECAY_DATE":null,"PERIAPSIS":"356.941","CENTER_NAME":"EARTH","SITE":"AFWTR","MEAN_MOTION_DOT":"-0.00031480","EPOCH":"2021-10-22T22:00:01.999584","OBJECT_NAME":"STARLINK-3073","APOAPSIS":"361.973","EPHEMERIS_TYPE":"0","OBJECT_ID":"2021-082F","FILE":"3179071","BSTAR":"-0.00026228000000","MEAN_MOTION":"15.69804889","RA_OF_ASC_NODE":"17.8551","MEAN_ELEMENT_THEORY":"SGP4","TIME_SYSTEM":"UTC","ELEMENT_SET_NO":"999","REF_FRAME":"TEME","MEAN_ANOMALY":"329.3779","GP_ID":"187935140","NORAD_CAT_ID":"49135","RCS_SIZE":"LARGE","COUNTRY_CODE":"US","ECCENTRICITY":"0.00037340","ARG_OF_PERICENTER":"291.9970","TLE_LINE1":"1 49135U 21082F   21295.91668981 -.00031480  00000-0 -26228-3 0  9993","TLE_LINE2":"2 49135  70.0009  17.8551 0003734 291.9970 329.3779 15.69804889  3664","REV_AT_EPOCH":"366","OBJECT_TYPE":"PAYLOAD","LAUNCH_DATE":"2021-09-14","PERIOD":"91.731","INCLINATION":"70.0009"},{"DECAY_DATE":null,"CLASSIFICATION_TYPE":"U","PERIAPSIS":"356.924","CENTER_NAME":"EARTH","SITE":"AFWTR","SEMIMAJOR_AXIS":"6737.659","MEAN_MOTION_DDOT":"0.0000000000000","OBJECT_ID":"2021-082G","FILE":"3179034","BSTAR":"-0.00088266000000","MEAN_MOTION":"15.69781708","EPHEMERIS_TYPE":"0","RA_OF_ASC_NODE":"17.8594","OBJECT_NAME":"STARLINK-3084","APOAPSIS":"362.123","EPOCH":"2021-10-22T22:00:01.999584","MEAN_MOTION_DOT":"-0.00104434","RCS_SIZE":"LARGE","GP_ID":"187912193","NORAD_CAT_ID":"49136","COUNTRY_CODE":"US","REF_FRAME":"TEME","MEAN_ANOMALY":"332.4553","ECCENTRICITY":"0.00038580","MEAN_ELEMENT_THEORY":"SGP4","ELEMENT_SET_NO":"999","TIME_SYSTEM":"UTC","REV_AT_EPOCH":"619","PERIOD":"91.732","INCLINATION":"70.0018","LAUNCH_DATE":"2021-09-14","OBJECT_TYPE":"PAYLOAD","ARG_OF_PERICENTER":"286.9541","TLE_LINE2":"2 49136  70.0018  17.8594 0003858 286.9541 332.4553 15.69781708  6197","TLE_LINE1":"1 49136U 21082G   21295.91668981 -.00104434  00000-0 -88266-3 0  9994"},{"EPOCH":"2021-10-22T22:00:01.999584","MEAN_MOTION_DOT":"-0.00078223","OBJECT_NAME":"STARLINK-3055","APOAPSIS":"362.033","EPHEMERIS_TYPE":"0","OBJECT_ID":"2021-082H","BSTAR":"-0.00065889000000","FILE":"3179034","MEAN_MOTION":"15.69773250","RA_OF_ASC_NODE":"17.8528","SEMIMAJOR_AXIS":"6737.683","MEAN_MOTION_DDOT":"0.0000000000000","CLASSIFICATION_TYPE":"U","DECAY_DATE":null,"PERIAPSIS":"357.063","CENTER_NAME":"EARTH","SITE":"AFWTR","ARG_OF_PERICENTER":"291.9755","TLE_LINE1":"1 49137U 21082H   21295.91668981 -.00078223  00000-0 -65889-3 0  9997","TLE_LINE2":"2 49137  70.0010  17.8528 0003688 291.9755 331.6989 15.69773250  6198","REV_AT_EPOCH":"619","OBJECT_TYPE":"PAYLOAD","LAUNCH_DATE":"2021-09-14","PERIOD":"91.733","INCLINATION":"70.0010","TIME_SYSTEM":"UTC","ELEMENT_SET_NO":"999","MEAN_ELEMENT_THEORY":"SGP4","REF_FRAME":"TEME","MEAN_ANOMALY":"331.6989","GP_ID":"187911813","RCS_SIZE":"LARGE","NORAD_CAT_ID":"49137","COUNTRY_CODE":"US","ECCENTRICITY":"0.00036880"},{"RA_OF_ASC_NODE":"17.8471","EPHEMERIS_TYPE":"0","OBJECT_ID":"2021-082J","MEAN_MOTION":"15.69767052","FILE":"3179071","BSTAR":"-0.00025363000000","EPOCH":"2021-10-22T22:00:01.999584","MEAN_MOTION_DOT":"-0.00030405","OBJECT_NAME":"STARLINK-3058","APOAPSIS":"362.089","CENTER_NAME":"EARTH","SITE":"AFWTR","CLASSIFICATION_TYPE":"U","DECAY_DATE":null,"PERIAPSIS":"357.042","MEAN_MOTION_DDOT":"0.0000000000000","SEMIMAJOR_AXIS":"6737.700","LAUNCH_DATE":"2021-09-14","OBJECT_TYPE":"PAYLOAD","PERIOD":"91.733","INCLINATION":"70.0019","REV_AT_EPOCH":"366","TLE_LINE1":"1 49138U 21082J   21295.91668981 -.00030405  00000-0 -25363-3 0  9991","TLE_LINE2":"2 49138  70.0019  17.8471 0003745 292.2582 337.8031 15.69767052  3669","ARG_OF_PERICENTER":"292.2582","ECCENTRICITY":"0.00037450","REF_FRAME":"TEME","MEAN_ANOMALY":"337.8031","GP_ID":"187934919","NORAD_CAT_ID":"49138","RCS_SIZE":"LARGE","COUNTRY_CODE":"US","MEAN_ELEMENT_THEORY":"SGP4","ELEMENT_SET_NO":"999","TIME_SYSTEM":"UTC"},{"SEMIMAJOR_AXIS":"6737.735","MEAN_MOTION_DDOT":"0.0000000000000","PERIAPSIS":"357.140","DECAY_DATE":null,"CLASSIFICATION_TYPE":"U","SITE":"AFWTR","CENTER_NAME":"EARTH","OBJECT_NAME":"STARLINK-3057","APOAPSIS":"362.059","MEAN_MOTION_DOT":"-0.00030464","EPOCH":"2021-10-22T22:00:01.999584","MEAN_MOTION":"15.69755153","FILE":"3179071","BSTAR":"-0.00025426000000","OBJECT_ID":"2021-082K","EPHEMERIS_TYPE":"0","RA_OF_ASC_NODE":"17.8486","ELEMENT_SET_NO":"999","TIME_SYSTEM":"UTC","MEAN_ELEMENT_THEORY":"SGP4","COUNTRY_CODE":"US","GP_ID":"187935475","RCS_SIZE":"LARGE","NORAD_CAT_ID":"49139","MEAN_ANOMALY":"335.4599","REF_FRAME":"TEME","ECCENTRICITY":"0.00036500","ARG_OF_PERICENTER":"292.4688","TLE_LINE2":"2 49139  70.0005  17.8486 0003650 292.4688 335.4599 15.69755153  3667","TLE_LINE1":"1 49139U 21082K   21295.91668981 -.00030464  00000-0 -25426-3 0  9997","REV_AT_EPOCH":"366","INCLINATION":"70.0005","PERIOD":"91.734","LAUNCH_DATE":"2021-09-14","OBJECT_TYPE":"PAYLOAD"},{"ARG_OF_PERICENTER":"289.3174","TLE_LINE2":"2 49140  70.0012  17.8414 0004042 289.3174 344.9835 15.69770520  6193","TLE_LINE1":"1 49140U 21082L   21295.91668981 -.00029774  00000-0 -24826-3 0  9994","REV_AT_EPOCH":"619","PERIOD":"91.733","INCLINATION":"70.0012","LAUNCH_DATE":"2021-09-14","OBJECT_TYPE":"PAYLOAD","ELEMENT_SET_NO":"999","TIME_SYSTEM":"UTC","MEAN_ELEMENT_THEORY":"SGP4","NORAD_CAT_ID":"49140","GP_ID":"187911835","RCS_SIZE":"LARGE","COUNTRY_CODE":"US","REF_FRAME":"TEME","MEAN_ANOMALY":"344.9835","ECCENTRICITY":"0.00040420","OBJECT_NAME":"STARLINK-3118","APOAPSIS":"362.279","EPOCH":"2021-10-22T22:00:01.999584","MEAN_MOTION_DOT":"-0.00029774","OBJECT_ID":"2021-082L","BSTAR":"-0.00024826000000","FILE":"3179035","MEAN_MOTION":"15.69770520","EPHEMERIS_TYPE":"0","RA_OF_ASC_NODE":"17.8414","SEMIMAJOR_AXIS":"6737.691","MEAN_MOTION_DDOT":"0.0000000000000","DECAY_DATE":null,"CLASSIFICATION_TYPE":"U","PERIAPSIS":"356.832","SITE":"AFWTR","CENTER_NAME":"EARTH"}];
